STARLINK-1704
1 47625U 21012F   26061.10230913  .00073599  00000+0  16577-2 0  9994
2 47625  53.0524  98.7886 0001227 198.7903 161.3056 15.42637666278937
